CCSDS_OMM_VERS = 2.0
CREATION_DATE  = 
ORIGINATOR     = 

OBJECT_NAME    = KUIPER-00245
OBJECT_ID      = 2025-301T
CENTER_NAME    = EARTH
REF_FRAME      = TEME
TIME_SYSTEM    = UTC
MEAN_ELEMENT_THEORY = SGP/SGP4

EPOCH          = 2026-01-14T06:00:02.000160
MEAN_MOTION    = 15.22329474
ECCENTRICITY   = .00075304
INCLINATION    = 51.8782
RA_OF_ASC_NODE = 328.7251
ARG_OF_PERICENTER = 187.1919
MEAN_ANOMALY   = 336.9351

EPHEMERIS_TYPE = 0
CLASSIFICATION_TYPE = U
NORAD_CAT_ID   = 67150
ELEMENT_SET_NO = 999
REV_AT_EPOCH   = 485
BSTAR          = -.46934616E-1
MEAN_MOTION_DOT = -.1010635E-1
MEAN_MOTION_DDOT = 0

CCSDS_OMM_VERS = 2.0
CREATION_DATE  = 
ORIGINATOR     = 

OBJECT_NAME    = KUIPER-00246
OBJECT_ID      = 2025-301U
CENTER_NAME    = EARTH
REF_FRAME      = TEME
TIME_SYSTEM    = UTC
MEAN_ELEMENT_THEORY = SGP/SGP4

EPOCH          = 2026-01-14T04:04:32.610432
MEAN_MOTION    = 15.36612523
ECCENTRICITY   = .00039202
INCLINATION    = 51.8743
RA_OF_ASC_NODE = 328.6009
ARG_OF_PERICENTER = 159.1916
MEAN_ANOMALY   = 200.9231

EPHEMERIS_TYPE = 0
CLASSIFICATION_TYPE = U
NORAD_CAT_ID   = 67151
ELEMENT_SET_NO = 999
REV_AT_EPOCH   = 537
BSTAR          = .47117062E-3
MEAN_MOTION_DOT = .16757E-3
MEAN_MOTION_DDOT = 0

CCSDS_OMM_VERS = 2.0
CREATION_DATE  = 
ORIGINATOR     = 

OBJECT_NAME    = KUIPER-00247
OBJECT_ID      = 2025-301V
CENTER_NAME    = EARTH
REF_FRAME      = TEME
TIME_SYSTEM    = UTC
MEAN_ELEMENT_THEORY = SGP/SGP4

EPOCH          = 2026-01-14T03:24:22.987872
MEAN_MOTION    = 15.34542009
ECCENTRICITY   = .00112503
INCLINATION    = 51.8666
RA_OF_ASC_NODE = 329.1402
ARG_OF_PERICENTER = 215.3647
MEAN_ANOMALY   = 144.6594

EPHEMERIS_TYPE = 0
CLASSIFICATION_TYPE = U
NORAD_CAT_ID   = 67152
ELEMENT_SET_NO = 999
REV_AT_EPOCH   = 534
BSTAR          = .54486509E-3
MEAN_MOTION_DOT = .18207E-3
MEAN_MOTION_DDOT = 0

CCSDS_OMM_VERS = 2.0
CREATION_DATE  = 
ORIGINATOR     = 

OBJECT_NAME    = KUIPER-00248
OBJECT_ID      = 2025-301W
CENTER_NAME    = EARTH
REF_FRAME      = TEME
TIME_SYSTEM    = UTC
MEAN_ELEMENT_THEORY = SGP/SGP4

EPOCH          = 2026-01-13T20:49:35.760000
MEAN_MOTION    = 15.35359724
ECCENTRICITY   = .00085035
INCLINATION    = 51.8701
RA_OF_ASC_NODE = 330.3146
ARG_OF_PERICENTER = 198.1736
MEAN_ANOMALY   = 161.8948

EPHEMERIS_TYPE = 0
CLASSIFICATION_TYPE = U
NORAD_CAT_ID   = 67153
ELEMENT_SET_NO = 999
REV_AT_EPOCH   = 547
BSTAR          = .34965628E-3
MEAN_MOTION_DOT = .11839E-3
MEAN_MOTION_DDOT = 0

CCSDS_OMM_VERS = 2.0
CREATION_DATE  = 
ORIGINATOR     = 

OBJECT_NAME    = KUIPER-00249
OBJECT_ID      = 2025-301X
CENTER_NAME    = EARTH
REF_FRAME      = TEME
TIME_SYSTEM    = UTC
MEAN_ELEMENT_THEORY = SGP/SGP4

EPOCH          = 2026-01-13T20:43:49.132704
MEAN_MOTION    = 15.35739434
ECCENTRICITY   = .00084173
INCLINATION    = 51.8671
RA_OF_ASC_NODE = 330.2854
ARG_OF_PERICENTER = 196.5619
MEAN_ANOMALY   = 163.5094

EPHEMERIS_TYPE = 0
CLASSIFICATION_TYPE = U
NORAD_CAT_ID   = 67154
ELEMENT_SET_NO = 999
REV_AT_EPOCH   = 530
BSTAR          = .58853785E-3
MEAN_MOTION_DOT = .20465E-3
MEAN_MOTION_DDOT = 0

CCSDS_OMM_VERS = 2.0
CREATION_DATE  = 
ORIGINATOR     = 

OBJECT_NAME    = KUIPER-00250
OBJECT_ID      = 2025-301Y
CENTER_NAME    = EARTH
REF_FRAME      = TEME
TIME_SYSTEM    = UTC
MEAN_ELEMENT_THEORY = SGP/SGP4

EPOCH          = 2026-01-13T14:15:25.792992
MEAN_MOTION    = 15.36215369
ECCENTRICITY   = .00066057
INCLINATION    = 51.8727
RA_OF_ASC_NODE = 331.4899
ARG_OF_PERICENTER = 182.8323
MEAN_ANOMALY   = 177.2627

EPHEMERIS_TYPE = 0
CLASSIFICATION_TYPE = U
NORAD_CAT_ID   = 67155
ELEMENT_SET_NO = 999
REV_AT_EPOCH   = 529
BSTAR          = .38822627E-3
MEAN_MOTION_DOT = .13559E-3
MEAN_MOTION_DDOT = 0

CCSDS_OMM_VERS = 2.0
CREATION_DATE  = 
ORIGINATOR     = 

OBJECT_NAME    = KUIPER-00251
OBJECT_ID      = 2025-301Z
CENTER_NAME    = EARTH
REF_FRAME      = TEME
TIME_SYSTEM    = UTC
MEAN_ELEMENT_THEORY = SGP/SGP4

EPOCH          = 2026-01-13T20:48:47.503008
MEAN_MOTION    = 15.35388887
ECCENTRICITY   = .00090981
INCLINATION    = 51.8681
RA_OF_ASC_NODE = 330.3098
ARG_OF_PERICENTER = 194.9405
MEAN_ANOMALY   = 165.1313

EPHEMERIS_TYPE = 0
CLASSIFICATION_TYPE = U
NORAD_CAT_ID   = 67156
ELEMENT_SET_NO = 999
REV_AT_EPOCH   = 549
BSTAR          = .55404053E-3
MEAN_MOTION_DOT = .19024E-3
MEAN_MOTION_DDOT = 0

CCSDS_OMM_VERS = 2.0
CREATION_DATE  = 
ORIGINATOR     = 

OBJECT_NAME    = KUIPER-00252
OBJECT_ID      = 2025-301AA
CENTER_NAME    = EARTH
REF_FRAME      = TEME
TIME_SYSTEM    = UTC
MEAN_ELEMENT_THEORY = SGP/SGP4

EPOCH          = 2026-01-14T03:15:42.200640
MEAN_MOTION    = 15.35048934
ECCENTRICITY   = .00097774
INCLINATION    = 51.8668
RA_OF_ASC_NODE = 329.1061
ARG_OF_PERICENTER = 207.4034
MEAN_ANOMALY   = 152.6437

EPHEMERIS_TYPE = 0
CLASSIFICATION_TYPE = U
NORAD_CAT_ID   = 67157
ELEMENT_SET_NO = 999
REV_AT_EPOCH   = 534
BSTAR          = .56215209E-3
MEAN_MOTION_DOT = .19101E-3
MEAN_MOTION_DDOT = 0

CCSDS_OMM_VERS = 2.0
CREATION_DATE  = 
ORIGINATOR     = 

OBJECT_NAME    = KUIPER-00261
OBJECT_ID      = 2025-301AB
CENTER_NAME    = EARTH
REF_FRAME      = TEME
TIME_SYSTEM    = UTC
MEAN_ELEMENT_THEORY = SGP/SGP4

EPOCH          = 2026-01-13T14:14:11.227200
MEAN_MOTION    = 15.36268104
ECCENTRICITY   = .00066487
INCLINATION    = 51.8708
RA_OF_ASC_NODE = 331.4819
ARG_OF_PERICENTER = 179.1069
MEAN_ANOMALY   = 180.9930

EPHEMERIS_TYPE = 0
CLASSIFICATION_TYPE = U
NORAD_CAT_ID   = 67158
ELEMENT_SET_NO = 999
REV_AT_EPOCH   = 526
BSTAR          = .48192107E-3
MEAN_MOTION_DOT = .16963E-3
MEAN_MOTION_DDOT = 0

CCSDS_OMM_VERS = 2.0
CREATION_DATE  = 
ORIGINATOR     = 

OBJECT_NAME    = KUIPER-00265
OBJECT_ID      = 2025-301AC
CENTER_NAME    = EARTH
REF_FRAME      = TEME
TIME_SYSTEM    = UTC
MEAN_ELEMENT_THEORY = SGP/SGP4

EPOCH          = 2026-01-14T06:00:02.000160
MEAN_MOTION    = 15.18383598
ECCENTRICITY   = .0002249
INCLINATION    = 51.8830
RA_OF_ASC_NODE = 328.8451
ARG_OF_PERICENTER = 230.8340
MEAN_ANOMALY   = 288.7078

EPHEMERIS_TYPE = 0
CLASSIFICATION_TYPE = U
NORAD_CAT_ID   = 67159
ELEMENT_SET_NO = 999
REV_AT_EPOCH   = 539
BSTAR          = -.91775825E-1
MEAN_MOTION_DOT = -.1722292E-1
MEAN_MOTION_DDOT = 0

CCSDS_OMM_VERS = 2.0
CREATION_DATE  = 
ORIGINATOR     = 

OBJECT_NAME    = GSAT0233 (GALILEO 33)
OBJECT_ID      = 2025-302A
CENTER_NAME    = EARTH
REF_FRAME      = TEME
TIME_SYSTEM    = UTC
MEAN_ELEMENT_THEORY = SGP/SGP4

EPOCH          = 2025-12-18T03:30:19.486368
MEAN_MOTION    = 1.72906186
ECCENTRICITY   = .00084238
INCLINATION    = 54.2406
RA_OF_ASC_NODE = 107.2544
ARG_OF_PERICENTER = 237.6458
MEAN_ANOMALY   = 122.2317

EPHEMERIS_TYPE = 0
CLASSIFICATION_TYPE = U
NORAD_CAT_ID   = 67160
ELEMENT_SET_NO = 999
REV_AT_EPOCH   = 2
BSTAR          = 0
MEAN_MOTION_DOT = -.7E-7
MEAN_MOTION_DDOT = 0

CCSDS_OMM_VERS = 2.0
CREATION_DATE  = 
ORIGINATOR     = 

OBJECT_NAME    = ARIANE 6 R/B
OBJECT_ID      = 2025-302B
CENTER_NAME    = EARTH
REF_FRAME      = TEME
TIME_SYSTEM    = UTC
MEAN_ELEMENT_THEORY = SGP/SGP4

EPOCH          = 2026-01-13T03:51:30.761280
MEAN_MOTION    = 1.72972476
ECCENTRICITY   = .00050981
INCLINATION    = 54.2429
RA_OF_ASC_NODE = 106.4589
ARG_OF_PERICENTER = 260.1969
MEAN_ANOMALY   = 99.7486

EPHEMERIS_TYPE = 0
CLASSIFICATION_TYPE = U
NORAD_CAT_ID   = 67161
ELEMENT_SET_NO = 999
REV_AT_EPOCH   = 48
BSTAR          = 0
MEAN_MOTION_DOT = -.34E-6
MEAN_MOTION_DDOT = 0

