KUIPER-00245            
1 67150U 25301T   26014.25002315 -.01010635  00000+0 -46935-1 0  9996
2 67150  51.8782 328.7251 0007530 187.1919 336.9351 15.22329474  4857
KUIPER-00246            
1 67151U 25301U   26014.16982188  .00016757  00000+0  47117-3 0  9995
2 67151  51.8743 328.6009 0003920 159.1916 200.9231 15.36612523  5370
KUIPER-00247            
1 67152U 25301V   26014.14193273  .00018207  00000+0  54487-3 0  9993
2 67152  51.8666 329.1402 0011250 215.3647 144.6594 15.34542009  5341
KUIPER-00248            
1 67153U 25301W   26013.86777500  .00011839  00000+0  34966-3 0  9997
2 67153  51.8701 330.3146 0008503 198.1736 161.8948 15.35359724  5474
KUIPER-00249            
1 67154U 25301X   26013.86376311  .00020465  00000+0  58854-3 0  9990
2 67154  51.8671 330.2854 0008417 196.5619 163.5094 15.35739434  5305
KUIPER-00250            
1 67155U 25301Y   26013.59404853  .00013559  00000+0  38823-3 0  9994
2 67155  51.8727 331.4899 0006605 182.8323 177.2627 15.36215369  5296
KUIPER-00251            
1 67156U 25301Z   26013.86721647  .00019024  00000+0  55404-3 0  9995
2 67156  51.8681 330.3098 0009098 194.9405 165.1313 15.35388887  5494
KUIPER-00252            
1 67157U 25301AA  26014.13590510  .00019101  00000+0  56215-3 0  9997
2 67157  51.8668 329.1061 0009777 207.4034 152.6437 15.35048934  5346
KUIPER-00261            
1 67158U 25301AB  26013.59318550  .00016963  00000+0  48192-3 0  9997
2 67158  51.8708 331.4819 0006648 179.1069 180.9930 15.36268104  5263
KUIPER-00265            
1 67159U 25301AC  26014.25002315 -.01722292  00000+0 -91776-1 0  9997
2 67159  51.8830 328.8451 0002249 230.8340 288.7078 15.18383598  5391
GSAT0233 (GALILEO 33)   
1 67160U 25302A   25352.14605887 -.00000007  00000+0  00000+0 0  9994
2 67160  54.2406 107.2544 0008423 237.6458 122.2317  1.72906186    28
ARIANE 6 R/B            
1 67161U 25302B   26013.16077270 -.00000034  00000+0  00000+0 0  9991
2 67161  54.2429 106.4589 0005098 260.1969  99.7486  1.72972476   487
